STARLINK-32281          
1 60375U 24138W   25196.61828213  .00001632  00000+0  67225-4 0  9990
2 60375  53.1608 330.5845 0001074  94.2158 265.8966 15.30188460 54237
STARLINK-32277          
1 60376U 24138X   25196.58673329  .00000692  00000+0  35475-4 0  9990
2 60376  53.1611 331.0935 0001067  76.6855 283.4265 15.30196652 54328
STARLINK-32269          
1 60377U 24138Y   25196.63622008  .00001063  00000+0  48031-4 0  9990
2 60377  53.1607 330.6916 0001228  89.6166 270.4976 15.30188502 54337
QIANFAN-1               
1 60379U 24140A   25196.56290477  .00000100  00000+0  13653-3 0  9990
2 60379  88.9842 314.7890 0015477 289.9679  69.9805 13.50951144 47070
QIANFAN-2               
1 60380U 24140B   25196.59176452  .00000115  00000+0  15934-3 0  9991
2 60380  88.9828 314.6463 0010900 257.3666 102.6266 13.50957601 47139
QIANFAN-3               
1 60381U 24140C   25196.82210889  .00000116  00000+0  16173-3 0  9998
2 60381  88.9821 314.7662 0011895 271.5346  88.4442 13.50955754 47079
QIANFAN-4               
1 60382U 24140D   25196.87151449  .00000122  00000+0  17086-3 0  9991
2 60382  88.9846 314.6213 0011107 259.5117 100.4783 13.50951230 47197
QIANFAN-5               
1 60383U 24140E   25196.84691146  .00000111  00000+0  15335-3 0  9995
2 60383  88.9821 314.7895 0013134 284.6688  75.3007 13.50954337 47068
QIANFAN-6               
1 60384U 24140F   25196.86735786  .00000115  00000+0  15969-3 0  9994
2 60384  88.9847 314.4937 0011157 266.5757  93.4118 13.50955765 47262
QIANFAN-7               
1 60385U 24140G   25196.81253822  .00000449  00000+0  17660-3 0  9996
2 60385  88.9850 311.3037 0015917 165.5454 194.6198 14.27476452 49006
QIANFAN-8               
1 60386U 24140H   25196.80164412  .00000122  00000+0  17040-3 0  9992
2 60386  88.9849 314.7353 0014588 269.8966  90.0514 13.50954940 47133
QIANFAN-9               
1 60387U 24140J   25196.85102291  .00000110  00000+0  15180-3 0  9995
2 60387  88.9847 314.8084 0014280 269.3735  90.5780 13.50952540 47080
QIANFAN-10              
1 60388U 24140K   25196.85518342  .00000105  00000+0  14498-3 0  9999
2 60388  88.9856 314.1416 0013085 243.3574 116.6238 13.50955039 47475
QIANFAN-11              
1 60389U 24140L   25196.81811827  .00000112  00000+0  15573-3 0  9993
2 60389  88.9783 314.8436 0012313 268.9511  91.0229 13.50955105 46964
QIANFAN-12              
1 60390U 24140M   25196.83863767  .00000123  00000+0  17277-3 0  9992
2 60390  88.9826 314.8193 0011088 278.3563  81.6331 13.50954882 47044
QIANFAN-13              
1 60391U 24140N   25196.80985187  .00000118  00000+0  16480-3 0  9990
2 60391  88.9838 314.9037 0010907 281.5696  78.4230 13.50954654 47014
QIANFAN-14              
1 60392U 24140P   25196.83450436  .00000118  00000+0  16493-3 0  9992
2 60392  88.9817 314.8308 0014593 281.4079  78.5433 13.50955739 47023
QIANFAN-15              
1 60393U 24140Q   25196.84282653  .00000113  00000+0  15653-3 0  9990
2 60393  88.9840 314.7510 0010457 265.0113  94.9844 13.50952618 47106
QIANFAN-16              
1 60394U 24140R   25196.83048701  .00000112  00000+0  15495-3 0  9997
2 60394  88.9843 314.8677 0012532 286.0582  73.9189 13.50954874 47053
QIANFAN-17              
1 60395U 24140S   25196.82632805  .00000110  00000+0  15126-3 0  9990
2 60395  88.9855 314.8972 0012929 278.7147  81.2539 13.50956983 47043
QIANFAN-18              
1 60396U 24140T   25196.80580882  .00000118  00000+0  16477-3 0  9994
2 60396  88.9847 314.4445 0012395 258.5782 101.3977 13.50952526 47278
STARLINK-11228 [DTC]    
1 60398U 24141A   25196.20914230  .00000739  00000+0  10959-4 0  9998
2 60398  53.1590 176.9763 0001139  93.1595 266.9553 15.69705867 54397
STARLINK-11182 [DTC]    
1 60399U 24141B   25196.64010199 -.00004288  00000+0 -30519-4 0  9997
2 60399  53.1581 174.6807 0000942  50.9132 309.1969 15.69734726 54512
STARLINK-11234 [DTC]    
1 60400U 24141C   25196.18951850 -.00000096  00000+0  40717-5 0  9991
2 60400  53.1585 176.8446 0001306  78.0773 282.0391 15.69714850 54399
STARLINK-11232 [DTC]    
1 60401U 24141D   25196.24828089  .00000698  00000+0  10617-4 0  9998
2 60401  53.1588 176.4999 0001158  95.6867 264.4283 15.69712338 54456
STARLINK-11139 [DTC]    
1 60402U 24141E   25196.37072369 -.00002741  00000+0 -17783-4 0  9999
2 60402  53.1591 175.8376 0001051  75.4912 284.6222 15.69698880 54476
STARLINK-11158 [DTC]    
1 60403U 24141F   25196.23857097  .00001551  00000+0  17654-4 0  9997
2 60403  53.1596 177.1703 0001280  98.3795 261.7368 15.69715512 54398
STARLINK-11199 [DTC]    
1 60404U 24141G   25196.36100195  .00000619  00000+0  99636-5 0  9997
2 60404  53.1595 176.5081 0001132  90.2264 269.8883 15.69716316 54460
STARLINK-11081 [DTC]    
1 60405U 24141H   25196.35609301  .00001942  00000+0  20862-4 0  9994
2 60405  53.1579 176.4717 0001110  80.6631 279.4513 15.69736258 54414
STARLINK-11150 [DTC]    
1 60406U 24141J   25196.22385583  .00000137  00000+0  59871-5 0  9992
2 60406  53.1590 177.0679 0001156  95.1706 264.9444 15.69713646 54447
STARLINK-11136 [DTC]    
1 60407U 24141K   25196.66463762 -.00001340  00000+0 -62070-5 0  9991
2 60407  53.1595 174.8386 0001111  96.9538 263.1606 15.69710386 54467
STARLINK-11196 [DTC]    
1 60408U 24141L   25196.65973900  .00002323  00000+0  24039-4 0  9993
2 60408  53.1593 174.8058 0001277  78.5359 281.5802 15.69698989 54514
STARLINK-11174 [DTC]    
1 60409U 24141M   25196.33157573 -.00001231  00000+0 -53032-5 0  9994
2 60409  53.1591 176.3103 0001050  93.7002 266.4136 15.69711054 54414
STARLINK-11191 [DTC]    
1 60410U 24141N   25196.64501845  .00000677  00000+0  10445-4 0  9996
2 60410  53.1597 174.7103 0001225 101.4488 258.6668 15.69708240 54510
STARLINK-32244          
1 60411U 24141P   25196.57065642  .00000339  00000+0  23561-4 0  9997
2 60411  53.1600 264.1957 0001226  87.6994 272.4148 15.30193452 53275
STARLINK-32186          
1 60412U 24141Q   25196.56749813  .00007784  00000+0  27502-3 0  9995
2 60412  53.1595 264.1742 0001266  98.0895 262.0249 15.30155215 53206
STARLINK-32178          
1 60413U 24141R   25196.49267902  .00001152  00000+0  51023-4 0  9991
2 60413  53.1586 264.4200 0001000  99.9783 260.1331 15.30198383 53205
STARLINK-32234          
1 60414U 24141S   25196.56432781 -.00004162  00000+0 -12846-3 0  9994
2 60414  53.1594 264.1557 0001166  86.3123 273.8011 15.30204814 53278
STARLINK-32265          
1 60415U 24141T   25196.56115681  .00000704  00000+0  35906-4 0  9991
2 60415  53.1584 264.1368 0000861  96.4272 263.6826 15.30195039 53275
STARLINK-32197          
1 60416U 24141U   25196.56757087  .00000717  00000+0  36330-4 0  9990
2 60416  53.1588 254.2124 0001108  75.1476 284.9648 15.30199356 53358
STARLINK-32255          
1 60417U 24141V   25196.48634315  .00000516  00000+0  29555-4 0  9998
2 60417  53.1594 264.3790 0000991  84.2548 275.8566 15.30198540 53269
STARLINK-32236          
1 60418U 24141W   25196.48212368  .00000737  00000+0  37003-4 0  9991
2 60418  53.1594 264.3518 0001105  72.9174 287.1948 15.30197387 53263
CAPELLA-13 (ACADIA-3)   
1 60419U 24142A   25196.17451298  .00004608  00000+0  52794-3 0  9990
2 60419  53.0058  88.6065 0001433  92.6578 267.4567 14.87581876 50247
ASBM-1                  
1 60422U 24143A   25191.80295394 -.00000077  00000+0  00000+0 0  9999
2 60422  62.5894  58.5950 5458074 268.6127  31.5187  1.50431044  6482
ASBM-2                  
1 60423U 24143B   25186.15100553 -.00000107  00000+0  00000+0 0  9998
2 60423  62.5505  58.8872 5451871 268.6437  31.5703  1.50428367  6387
STARLINK-32250          
1 60425U 24144A   25196.38943399  .00000017  00000+0  12711-4 0  9996
2 60425  53.1592 239.6403 0001175  74.3444 285.7687 15.30194427 52074
STARLINK-32226          
1 60426U 24144B   25196.38837894  .00000541  00000+0  30388-4 0  9991
2 60426  53.1590 239.6336 0001231  80.5406 279.5733 15.30191508 52977
STARLINK-32254          
1 60427U 24144C   25196.44103339 -.00000073  00000+0  96659-5 0  9994
2 60427  53.1593 239.2508 0001078  81.9175 278.1948 15.30191046 53022
STARLINK-32193          
1 60428U 24144D   25196.38626958  .00000359  00000+0  24244-4 0  9991
2 60428  53.1587 239.6200 0001001  76.0014 284.1098 15.30192010 53016
STARLINK-32242          
1 60429U 24144E   25196.44419810 -.00000054  00000+0  10304-4 0  9991
2 60429  53.1597 239.2702 0001112  83.5487 276.5640 15.30191163 53028
STARLINK-32196          
1 60430U 24144F   25196.43786632  .00000363  00000+0  24369-4 0  9999
2 60430  53.1591 239.2294 0001097  89.9394 270.1732 15.30190440 52982
STARLINK-32232          
1 60431U 24144G   25196.38310363  .00001066  00000+0  48128-4 0  9998
2 60431  53.1589 239.5998 0001214  85.2355 274.8784 15.30194130 52978
STARLINK-32246          
1 60432U 24144H   25196.50213963  .00003184  00000+0  11965-3 0  9992
2 60432  53.1588 238.9206 0001315  85.2760 274.8391 15.30180554 52996
STARLINK-32183          
1 60433U 24144J   25196.50001494  .00000283  00000+0  21684-4 0  9994
2 60433  53.1589 238.9061 0001124  91.8357 268.2773 15.30192492 52995
STARLINK-32233          
1 60434U 24144K   25196.55583342  .00000009  00000+0  12435-4 0  9997
2 60434  53.1580 238.5429 0001070  94.2262 265.8861 15.30193181 53003
STARLINK-32222          
1 60435U 24144L   25196.49368052 -.00004008  00000+0 -12322-3 0  9999
2 60435  53.1589 238.8650 0001120 107.2564 252.8559 15.30213436 52991
STARLINK-32229          
1 60436U 24144M   25196.35672260 -.00000106  00000+0  85389-5 0  9993
2 60436  53.1584 239.4331 0001055  94.2641 265.8480 15.30194781 52974
STARLINK-32241          
1 60437U 24144N   25196.48629750  .00000233  00000+0  19990-4 0  9998
2 60437  53.1582 238.8204 0000987  90.9074 269.2040 15.30194697 52999
STARLINK-32240          
1 60438U 24144P   25196.41888437 -.00001686  00000+0 -44817-4 0  9992
2 60438  53.1589 239.1080 0001340  74.1875 285.9274 15.30184925 53022
